[
    {
        "CCSDS_OMM_VERS": "3.0",
        "COMMENT": "GENERATED VIA SPACE-TRACK.ORG API",
        "CREATION_DATE": "2025-04-12T22:09:39",
        "ORIGINATOR": "18 SPCS",
        "OBJECT_NAME": "NAVSTAR 72 (USA 258)",
        "OBJECT_ID": "2014-068A",
        "CENTER_NAME": "EARTH",
        "REF_FRAME": "TEME",
        "TIME_SYSTEM": "UTC",
        "MEAN_ELEMENT_THEORY": "SGP4",
        "EPOCH": "2025-04-12T03:33:31.299552",
        "MEAN_MOTION": "2.00578818",
        "ECCENTRICITY": "0.00578100",
        "INCLINATION": "56.6726",
        "RA_OF_ASC_NODE": "47.6097",
        "ARG_OF_PERICENTER": "64.0501",
        "MEAN_ANOMALY": "296.5192",
        "EPHEMERIS_TYPE": "0",
        "CLASSIFICATION_TYPE": "U",
        "NORAD_CAT_ID": "40294",
        "ELEMENT_SET_NO": "999",
        "REV_AT_EPOCH": "7656",
        "BSTAR": "0.00000000000000",
        "MEAN_MOTION_DOT": "-0.00000077",
        "MEAN_MOTION_DDOT": "0.0000000000000",
        "SEMIMAJOR_AXIS": "26559.005",
        "PERIOD": "717.922",
        "APOAPSIS": "20334.407",
        "PERIAPSIS": "20027.332",
        "OBJECT_TYPE": "PAYLOAD",
        "RCS_SIZE": "LARGE",
        "COUNTRY_CODE": "US",
        "LAUNCH_DATE": "2014-10-29",
        "SITE": "AFETR",
        "DECAY_DATE": null,
        "FILE": "4699941",
        "GP_ID": "285444782",
        "TLE_LINE0": "0 NAVSTAR 72 (USA 258)",
        "TLE_LINE1": "1 40294U 14068A   25102.14827893 -.00000077  00000-0  00000-0 0  9995",
        "TLE_LINE2": "2 40294  56.6726  47.6097 0057810  64.0501 296.5192  2.00578818 76560"
    }
]